NORAD_CAT_ID,OBJECT_NAME,OBJECT_TYPE,EPOCH,MEAN_MOTION,ECCENTRICITY,INCLINATION,RA_OF_ASC_NODE,ARG_OF_PERICENTER,MEAN_ANOMALY,BSTAR,MEAN_MOTION_DOT,MEAN_MOTION_DDOT,TLE_LINE0,TLE_LINE1,TLE_LINE2,SEMIMAJOR_AXIS,PERIOD,APOGEE,PERIGEE,DECAYED
52486.0,STARLINK-3918,PAYLOAD,2023-03-17 21:20:05,15.08845546,0.0001256,53.2134,262.4511,98.4223,261.6911,0.00055015,8.48e-05,0.0,0 STARLINK-3918,1 52486U 22049AM  23076.88895530  .00008480  00000-0  55015-3 0  9995,2 52486  53.2134 262.4511 0001256  98.4223 261.6911 15.08845546 48035,6917.863,95.437,540.597,538.86,0.0
52486.0,STARLINK-3918,PAYLOAD,2023-03-18 21:10:52,15.08855731,0.0001243,53.2132,257.9897,98.3798,261.7335,0.00044018,6.727e-05,0.0,0 STARLINK-3918,1 52486U 22049AM  23077.88254944  .00006727  00000-0  44018-3 0  9997,2 52486  53.2132 257.9897 0001243  98.3798 261.7335 15.08855731 48185,6917.832,95.437,540.557,538.837,0.0
52486.0,STARLINK-3918,PAYLOAD,2023-03-19 05:07:48,15.08844312,0.0001502,53.214,256.5032,80.7481,279.3681,0.00013054,1.79e-05,0.0,0 STARLINK-3918,1 52486U 22049AM  23078.21375331  .00001790  00000-0  13054-3 0  9990,2 52486  53.2140 256.5032 0001502  80.7481 279.3681 15.08844312 48397,6917.867,95.437,540.771,538.693,0.0
52486.0,STARLINK-3918,PAYLOAD,2023-03-19 11:29:20,15.0884284,0.0001592,53.213,255.314,77.1002,283.0168,0.00010266,1.346e-05,0.0,0 STARLINK-3918,1 52486U 22049AM  23078.47871441  .00001346  00000-0  10266-3 0  9990,2 52486  53.2130 255.3140 0001592  77.1002 283.0168 15.08842840 48274,6917.872,95.437,540.838,538.635,0.0
52486.0,STARLINK-3918,PAYLOAD,2023-03-19 21:01:39,15.08843331,0.0001322,53.2136,253.5288,83.3978,276.7164,0.00017201,2.451e-05,0.0,0 STARLINK-3918,1 52486U 22049AM  23078.87615431  .00002451  00000-0  17201-3 0  9993,2 52486  53.2136 253.5288 0001322  83.3978 276.7164 15.08843331 48333,6917.87,95.437,540.65,538.821,0.0
52486.0,STARLINK-3918,PAYLOAD,2023-03-20 11:20:08,15.08842898,0.0001385,53.2136,250.8528,75.3916,284.723,0.00032591,4.903e-05,0.0,0 STARLINK-3918,1 52486U 22049AM  23079.47231577  .00004903  00000-0  32591-3 0  9998,2 52486  53.2136 250.8528 0001385  75.3916 284.7230 15.08842898 48589,6917.872,95.437,540.695,538.778,0.0
52486.0,STARLINK-3918,PAYLOAD,2023-03-20 17:41:40,15.08848603,0.0001355,53.2134,249.6628,74.4618,285.6523,0.00048791,7.487e-05,0.0,0 STARLINK-3918,1 52486U 22049AM  23079.73727390  .00007487  00000-0  48791-3 0  9999,2 52486  53.2134 249.6628 0001355  74.4618 285.6523 15.08848603 48462,6917.854,95.437,540.656,538.782,0.0
52486.0,STARLINK-3918,PAYLOAD,2023-03-21 11:10:54,15.08842569,0.000153,53.2135,246.3922,80.1923,279.9242,0.00013639,1.883e-05,0.0,0 STARLINK-3918,1 52486U 22049AM  23080.46591413  .00001883  00000-0  13639-3 0  9993,2 52486  53.2135 246.3922 0001530  80.1923 279.9242 15.08842569 48573,6917.873,95.437,540.796,538.679,0.0
52486.0,STARLINK-3918,PAYLOAD,2023-03-22 14:12:28,15.08842033,0.0001358,53.2144,241.3359,97.0622,263.0524,4.5292e-05,4.33e-06,0.0,0 STARLINK-3918,1 52486U 22049AM  23081.59199341  .00000433  00000-0  45292-4 0  9993,2 52486  53.2144 241.3359 0001358  97.0622 263.0524 15.08842033 48903,6917.874,95.437,540.679,538.8,0.0
52486.0,STARLINK-3918,PAYLOAD,2023-03-22 17:23:14,15.08844661,0.0001146,53.2144,240.7415,91.7051,268.4072,8.9989e-05,1.145e-05,0.0,0 STARLINK-3918,1 52486U 22049AM  23081.72447170  .00001145  00000-0  89989-4 0  9996,2 52486  53.2144 240.7415 0001146  91.7051 268.4072 15.08844661 48761,6917.866,95.437,540.524,538.938,0.0
52486.0,STARLINK-3918,PAYLOAD,2023-03-23 10:52:29,15.0883557,0.0001463,53.2158,237.4713,95.2265,264.8894,7.5774e-05,9.18e-06,0.0,0 STARLINK-3918,1 52486U 22049AM  23082.45311808  .00000918  00000-0  75774-4 0  9999,2 52486  53.2158 237.4713 0001463  95.2265 264.8894 15.08835570 49030,6917.894,95.438,540.771,538.747,0.0
52486.0,STARLINK-3918,PAYLOAD,2023-03-23 14:03:15,15.08837847,0.0001481,53.2165,236.8773,102.5546,257.5611,9.8144e-05,1.274e-05,0.0,0 STARLINK-3918,1 52486U 22049AM  23082.58559723  .00001274  00000-0  98144-4 0  9995,2 52486  53.2165 236.8773 0001481 102.5546 257.5611 15.08837847 48899,6917.887,95.438,540.777,538.727,0.0
52486.0,STARLINK-3918,PAYLOAD,2023-03-23 17:14:01,15.08842608,0.0001137,53.215,236.2827,83.7212,276.3909,0.00017313,2.469e-05,0.0,0 STARLINK-3918,1 52486U 22049AM  23082.71807501  .00002469  00000-0  17313-3 0  9995,2 52486  53.2150 236.2827 0001137  83.7212 276.3909 15.08842608 48918,6917.872,95.437,540.524,538.951,0.0
52486.0,STARLINK-3918,PAYLOAD,2023-03-24 02:46:20,15.08848185,0.0001449,53.2172,234.5029,98.9535,261.1621,0.00025939,3.844e-05,0.0,0 STARLINK-3918,1 52486U 22049AM  23083.11551215  .00003844  00000-0  25939-3 0  9999,2 52486  53.2172 234.5029 0001449  98.9535 261.1621 15.08848185 49133,6917.855,95.437,540.723,538.718,0.0
52486.0,STARLINK-3918,PAYLOAD,2023-03-24 09:07:51,15.08871304,0.0001032,53.2145,233.3061,81.6444,278.4665,0.00057134,8.824e-05,0.0,0 STARLINK-3918,1 52486U 22049AM  23083.38045961  .00008824  00000-0  57134-3 0  9999,2 52486  53.2145 233.3061 0001032  81.6444 278.4665 15.08871304 49174,6917.785,95.436,540.364,538.936,0.0
52486.0,STARLINK-3918,PAYLOAD,2023-03-24 13:54:00,15.08877503,0.0001357,53.2167,232.4175,97.2584,262.8563,0.00065373,0.00010142,0.0,0 STARLINK-3918,1 52486U 22049AM  23083.57917408  .00010142  00000-0  65373-3 0  9994,2 52486  53.2167 232.4175 0001357  97.2584 262.8563 15.08877503 49049,6917.766,95.435,540.57,538.692,0.0
52486.0,STARLINK-3918,PAYLOAD,2023-03-24 17:04:46,15.08889753,0.000118,53.2157,231.8211,92.8233,267.2894,0.00081931,0.00012793,0.0,0 STARLINK-3918,1 52486U 22049AM  23083.71164507  .00012793  00000-0  81931-3 0  9996,2 52486  53.2157 231.8211 0001180  92.8233 267.2894 15.08889753 49224,6917.728,95.434,540.41,538.777,0.0
52486.0,STARLINK-3918,PAYLOAD,2023-03-25 02:37:05,15.08863562,0.0001095,53.2151,230.0411,119.8069,240.3033,0.00024128,3.557e-05,0.0,0 STARLINK-3918,1 52486U 22049AM  23084.10908800  .00003557  00000-0  24128-3 0  9995,2 52486  53.2151 230.0411 0001095 119.8069 240.3033 15.08863562 49286,6917.808,95.436,540.431,538.916,0.0
52486.0,STARLINK-3918,PAYLOAD,2023-03-25 10:34:01,15.08826826,0.000157,53.2169,228.5514,117.8789,242.2362,-0.00050271,-8.277e-05,0.0,0 STARLINK-3918,1 52486U 22049AM  23084.44030041 -.00008277  00000-0 -50271-3 0  9999,2 52486  53.2169 228.5514 0001570 117.8789 242.2362 15.08826826 49330,6917.921,95.438,540.872,538.7,0.0
52486.0,STARLINK-3918,PAYLOAD,2023-03-25 16:55:34,15.08834171,0.0001551,53.2169,227.3616,111.0584,249.0574,-0.00033776,-5.659e-05,0.0,0 STARLINK-3918,1 52486U 22049AM  23084.70525905 -.00005659  00000-0 -33776-3 0  9998,2 52486  53.2169 227.3616 0001551 111.0584 249.0574 15.08834171 49374,6917.898,95.438,540.836,538.69,0.0
52486.0,STARLINK-3918,PAYLOAD,2023-03-26 08:49:25,15.08839552,0.0001503,53.217,224.3876,112.5455,247.5696,-2.9824e-06,-3.35e-06,0.0,0 STARLINK-3918,1 52486U 22049AM  23085.36765757 -.00000335  00000-0 -29824-5 0  9999,2 52486  53.2170 224.3876 0001503 112.5455 247.5696 15.08839552 49478,6917.882,95.438,540.787,538.707,0.0
52486.0,STARLINK-3918,PAYLOAD,2023-03-26 16:46:21,15.08838461,0.0001472,53.2157,222.9,115.4552,244.6593,0.00079211,0.0001234,0.0,0 STARLINK-3918,1 52486U 22049AM  23085.69886511  .00012340  00000-0  79211-3 0  9997,2 52486  53.2157 222.9000 0001472 115.4552 244.6593 15.08838461 49361,6917.885,95.438,540.768,538.732,0.0
52486.0,STARLINK-3918,PAYLOAD,2023-03-27 02:18:41,15.08823863,0.00017,53.2149,221.1181,85.8905,274.2281,0.00040329,6.133e-05,0.0,0 STARLINK-3918,1 52486U 22049AM  23086.09631356  .00006133  00000-0  40329-3 0  9998,2 52486  53.2149 221.1181 0001700  85.8905 274.2281 15.08823863 49586,6917.93,95.439,540.971,538.619,0.0
52486.0,STARLINK-3918,PAYLOAD,2023-03-27 13:26:23,15.08824377,0.0001611,53.2152,219.0353,89.538,270.5797,0.00014014,1.942e-05,0.0,0 STARLINK-3918,1 52486U 22049AM  23086.55999865  .00001942  00000-0  14014-3 0  9996,2 52486  53.2152 219.0353 0001611  89.5380 270.5797 15.08824377 49498,6917.928,95.439,540.908,538.679,0.0
52486.0,STARLINK-3918,PAYLOAD,2023-03-27 15:01:47,15.08825397,0.0001362,53.2152,218.7382,84.73,275.3848,0.00018694,2.687e-05,0.0,0 STARLINK-3918,1 52486U 22049AM  23086.62623955  .00002687  00000-0  18694-3 0  9993,2 52486  53.2152 218.7382 0001362  84.7300 275.3848 15.08825397 49503,6917.925,95.438,540.732,538.848,0.0
52486.0,STARLINK-3918,PAYLOAD,2023-03-28 13:17:11,15.08838666,0.0001612,53.2147,214.575,80.5497,279.5677,0.00036098,5.461e-05,0.0,0 STARLINK-3918,1 52486U 22049AM  23087.55360265  .00005461  00000-0  36098-3 0  9999,2 52486  53.2147 214.5750 0001612  80.5497 279.5677 15.08838666 49643,6917.884,95.438,540.865,538.634,0.0
52486.0,STARLINK-3918,PAYLOAD,2023-03-28 14:52:34,15.08840408,0.0001659,53.2142,214.2783,76.2766,283.841,0.00041114,6.261e-05,0.0,0 STARLINK-3918,1 52486U 22049AM  23087.61984318  .00006261  00000-0  41114-3 0  9991,2 52486  53.2142 214.2783 0001659  76.2766 283.8410 15.08840408 49812,6917.879,95.438,540.892,538.596,0.0
52486.0,STARLINK-3918,PAYLOAD,2023-03-29 13:07:58,15.08842624,0.0001247,53.2135,210.1147,74.8258,285.2872,0.00037244,5.645e-05,0.0,0 STARLINK-3918,1 52486U 22049AM  23088.54720352  .00005645  00000-0  37244-3 0  9994,2 52486  53.2135 210.1147 0001247  74.8258 285.2872 15.08842624 49951,6917.872,95.437,540.6,538.875,0.0
52486.0,STARLINK-3918,PAYLOAD,2023-03-29 14:43:21,15.08847242,0.0001438,53.2143,209.8168,87.1283,272.9873,0.00031509,4.731e-05,0.0,0 STARLINK-3918,1 52486U 22049AM  23088.61344052  .00004731  00000-0  31509-3 0  9994,2 52486  53.2143 209.8168 0001438  87.1283 272.9873 15.08847242 49804,6917.858,95.437,540.718,538.728,0.0
52486.0,STARLINK-3918,PAYLOAD,2023-03-30 11:23:22,15.08840817,0.0001195,53.2143,205.9517,74.2904,285.822,0.00012065,1.633e-05,0.0,0 STARLINK-3918,1 52486U 22049AM  23089.47456399  .00001633  00000-0  12065-3 0  9991,2 52486  53.2143 205.9517 0001195  74.2904 285.8220 15.08840817 50099,6917.878,95.438,540.57,538.916,0.0
